IDEFIX & ARIANE 42P R/B 
1 27422U 02021B   26059.82576550  .00000288  00000+0  12595-3 0  9994
2 27422  98.5860 358.5385 0011077 209.2581 150.7983 14.31018644242750
AQUA                    
1 27424U 02022A   26059.92482523  .00001178  00000+0  24503-3 0  9995
2 27424  98.4157  27.1312 0000747  51.8434  13.4061 14.61951394267456
CZ-4B R/B               
1 27432U 02024C   26059.74528572  .00000039  00000+0  42598-4 0  9991
2 27432  98.8860 113.1962 0050873  49.3446  59.8861 14.14545799227978
MIDORI II (ADEOS-II)    
1 27597U 02056A   26059.84307365  .00000302  00000+0  13650-3 0  9993
2 27597  98.7752  18.2605 0001887  55.6507 304.4852 14.29276912209037
H-2A R/B                
1 27601U 02056E   26059.91551740  .00000292  00000+0  11680-3 0  9994
2 27601  98.3185  20.6160 0069949 186.7938 241.3463 14.33753840212855
CZ-4B R/B               
1 28059U 03049C   26059.92505339  .00000474  00000+0  12046-3 0  9998
2 28059  98.6869  54.4866 0047001 258.2422 101.3499 14.55009883185321
CZ-2C R/B               
1 28222U 04012C   26059.71522608  .00055488  00000+0  59994-3 0  9994
2 28222  97.7259 124.1651 0013644 346.2709  13.8176 15.63325943202872
SL-16 R/B               
1 28353U 04021B   26059.97151531 -.00000038  00000+0  52731-5 0  9996
2 28353  70.9991 250.7893 0003579  28.1552 331.9764 14.14599755121602
CZ-4B R/B               
1 28415U 04035C   26059.61596360  .00008434  00000+0  29876-3 0  9993
2 28415  97.3518  93.9684 0032140   4.3166 355.8345 15.28868978178522
CZ-2C R/B               
1 28480U 04046B   26059.79081282  .00000130  00000+0  63333-4 0  9990
2 28480  98.1989 335.3281 0139353 180.7044 179.3963 14.26988776107230
ARIANE 5 R/B            
1 28499U 04049H   26059.94211449  .00000864  00000+0  10156-3 0  9998
2 28499  98.2613 228.0726 0084573  20.2602 340.1934 14.85246515144496
CZ-2D R/B               
1 28738U 05024B   26059.98393604  .00043129  00000+0  54815-3 0  9997
2 28738  97.3604  74.8167 0007048  67.7327 292.4676 15.59248972138429
